[{"CCSDS_OMM_VERS":"2.0","COMMENT":"GENERATED VIA SPACE-TRACK.ORG API","CREATION_DATE":"2021-05-22T03:56:36","ORIGINATOR":"18 SPCS","OBJECT_NAME":"STARLINK-1024","OBJECT_ID":"2019-074S","CENTER_NAME":"EARTH","REF_FRAME":"TEME","TIME_SYSTEM":"UTC","MEAN_ELEMENT_THEORY":"SGP4","EPOCH":"2021-05-21T17:30:34.147296","MEAN_MOTION":"15.06912791","ECCENTRICITY":"0.00010740","INCLINATION":"53.0002","RA_OF_ASC_NODE":"154.8784","ARG_OF_PERICENTER":"149.9583","MEAN_ANOMALY":"210.1467","EPHEMERIS_TYPE":"0","CLASSIFICATION_TYPE":"U","NORAD_CAT_ID":"44729","ELEMENT_SET_NO":"999","REV_AT_EPOCH":"8426","BSTAR":"0.00007103900000","MEAN_MOTION_DOT":"0.00000790","MEAN_MOTION_DDOT":"0.0000000000000","SEMIMAJOR_AXIS":"6923.777","PERIOD":"95.560","APOAPSIS":"546.386","PERIAPSIS":"544.899","OBJECT_TYPE":"PAYLOAD","RCS_SIZE":"LARGE","COUNTRY_CODE":"US","LAUNCH_DATE":"2019-11-11","SITE":"AFETR","DECAY_DATE":null,"FILE":"3040151","GP_ID":"177644497","TLE_LINE0":"0 STARLINK-1024","TLE_LINE1":"1 44729U 19074S   21141.72956189  .00000790  00000-0  71039-4 0  9993","TLE_LINE2":"2 44729  53.0002 154.8784 0001074 149.9583 210.1467 15.06912791 84268"},{"CCSDS_OMM_VERS":"2.0","COMMENT":"GENERATED VIA SPACE-TRACK.ORG API","CREATION_DATE":"2021-05-21T22:46:11","ORIGINATOR":"18 SPCS","OBJECT_NAME":"STARLINK-1024","OBJECT_ID":"2019-074S","CENTER_NAME":"EARTH","REF_FRAME":"TEME","TIME_SYSTEM":"UTC","MEAN_ELEMENT_THEORY":"SGP4","EPOCH":"2021-05-21T17:30:34.147296","MEAN_MOTION":"15.06912791","ECCENTRICITY":"0.00010740","INCLINATION":"53.0002","RA_OF_ASC_NODE":"154.8784","ARG_OF_PERICENTER":"149.9583","MEAN_ANOMALY":"210.1467","EPHEMERIS_TYPE":"0","CLASSIFICATION_TYPE":"U","NORAD_CAT_ID":"44729","ELEMENT_SET_NO":"999","REV_AT_EPOCH":"8443","BSTAR":"0.00007103900000","MEAN_MOTION_DOT":"0.00000790","MEAN_MOTION_DDOT":"0.0000000000000","SEMIMAJOR_AXIS":"6923.777","PERIOD":"95.560","APOAPSIS":"546.386","PERIAPSIS":"544.899","OBJECT_TYPE":"PAYLOAD","RCS_SIZE":"LARGE","COUNTRY_CODE":"US","LAUNCH_DATE":"2019-11-11","SITE":"AFETR","DECAY_DATE":null,"FILE":"3039907","GP_ID":"177618914","TLE_LINE0":"0 STARLINK-1024","TLE_LINE1":"1 44729U 19074S   21141.72956189  .00000790  00000-0  71039-4 0  9993","TLE_LINE2":"2 44729  53.0002 154.8784 0001074 149.9583 210.1467 15.06912791 84437"},{"CCSDS_OMM_VERS":"2.0","COMMENT":"GENERATED VIA SPACE-TRACK.ORG API","CREATION_DATE":"2021-05-22T18:49:54","ORIGINATOR":"18 SPCS","OBJECT_NAME":"STARLINK-1024","OBJECT_ID":"2019-074S","CENTER_NAME":"EARTH","REF_FRAME":"TEME","TIME_SYSTEM":"UTC","MEAN_ELEMENT_THEORY":"SGP4","EPOCH":"2021-05-22T12:36:38.704608","MEAN_MOTION":"15.06914473","ECCENTRICITY":"0.00010220","INCLINATION":"53.0002","RA_OF_ASC_NODE":"151.2981","ARG_OF_PERICENTER":"151.0502","MEAN_ANOMALY":"209.0543","EPHEMERIS_TYPE":"0","CLASSIFICATION_TYPE":"U","NORAD_CAT_ID":"44729","ELEMENT_SET_NO":"999","REV_AT_EPOCH":"8438","BSTAR":"0.00007789600000","MEAN_MOTION_DOT":"0.00000894","MEAN_MOTION_DDOT":"0.0000000000000","SEMIMAJOR_AXIS":"6923.772","PERIOD":"95.560","APOAPSIS":"546.345","PERIAPSIS":"544.930","OBJECT_TYPE":"PAYLOAD","RCS_SIZE":"LARGE","COUNTRY_CODE":"US","LAUNCH_DATE":"2019-11-11","SITE":"AFETR","DECAY_DATE":null,"FILE":"3040572","GP_ID":"177675721","TLE_LINE0":"0 STARLINK-1024","TLE_LINE1":"1 44729U 19074S   21142.52544797  .00000894  00000-0  77896-4 0  9992","TLE_LINE2":"2 44729  53.0002 151.2981 0001022 151.0502 209.0543 15.06914473 84380"},{"CCSDS_OMM_VERS":"2.0","COMMENT":"GENERATED VIA SPACE-TRACK.ORG API","CREATION_DATE":"2021-05-23T04:22:17","ORIGINATOR":"18 SPCS","OBJECT_NAME":"STARLINK-1024","OBJECT_ID":"2019-074S","CENTER_NAME":"EARTH","REF_FRAME":"TEME","TIME_SYSTEM":"UTC","MEAN_ELEMENT_THEORY":"SGP4","EPOCH":"2021-05-22T17:23:09.835296","MEAN_MOTION":"15.06914782","ECCENTRICITY":"0.00010060","INCLINATION":"53.0003","RA_OF_ASC_NODE":"150.4031","ARG_OF_PERICENTER":"151.3088","MEAN_ANOMALY":"208.7956","EPHEMERIS_TYPE":"0","CLASSIFICATION_TYPE":"U","NORAD_CAT_ID":"44729","ELEMENT_SET_NO":"999","REV_AT_EPOCH":"8441","BSTAR":"0.00007632500000","MEAN_MOTION_DOT":"0.00000870","MEAN_MOTION_DDOT":"0.0000000000000","SEMIMAJOR_AXIS":"6923.771","PERIOD":"95.559","APOAPSIS":"546.333","PERIAPSIS":"544.940","OBJECT_TYPE":"PAYLOAD","RCS_SIZE":"LARGE","COUNTRY_CODE":"US","LAUNCH_DATE":"2019-11-11","SITE":"AFETR","DECAY_DATE":null,"FILE":"3040824","GP_ID":"177703821","TLE_LINE0":"0 STARLINK-1024","TLE_LINE1":"1 44729U 19074S   21142.72441939  .00000870  00000-0  76325-4 0  9998","TLE_LINE2":"2 44729  53.0003 150.4031 0001006 151.3088 208.7956 15.06914782 84413"},{"CCSDS_OMM_VERS":"2.0","COMMENT":"GENERATED VIA SPACE-TRACK.ORG API","CREATION_DATE":"2021-05-23T06:46:10","ORIGINATOR":"18 SPCS","OBJECT_NAME":"STARLINK-1024","OBJECT_ID":"2019-074S","CENTER_NAME":"EARTH","REF_FRAME":"TEME","TIME_SYSTEM":"UTC","MEAN_ELEMENT_THEORY":"SGP4","EPOCH":"2021-05-23T02:56:12.087168","MEAN_MOTION":"15.06915308","ECCENTRICITY":"0.00009860","INCLINATION":"53.0003","RA_OF_ASC_NODE":"148.6129","ARG_OF_PERICENTER":"152.1523","MEAN_ANOMALY":"207.9518","EPHEMERIS_TYPE":"0","CLASSIFICATION_TYPE":"U","NORAD_CAT_ID":"44729","ELEMENT_SET_NO":"999","REV_AT_EPOCH":"8464","BSTAR":"0.00007366500000","MEAN_MOTION_DOT":"0.00000830","MEAN_MOTION_DDOT":"0.0000000000000","SEMIMAJOR_AXIS":"6923.770","PERIOD":"95.559","APOAPSIS":"546.317","PERIAPSIS":"544.952","OBJECT_TYPE":"PAYLOAD","RCS_SIZE":"LARGE","COUNTRY_CODE":"US","LAUNCH_DATE":"2019-11-11","SITE":"AFETR","DECAY_DATE":null,"FILE":"3040931","GP_ID":"177710189","TLE_LINE0":"0 STARLINK-1024","TLE_LINE1":"1 44729U 19074S   21143.12236212  .00000830  00000-0  73665-4 0  9999","TLE_LINE2":"2 44729  53.0003 148.6129 0000986 152.1523 207.9518 15.06915308 84644"},{"CCSDS_OMM_VERS":"2.0","COMMENT":"GENERATED VIA SPACE-TRACK.ORG API","CREATION_DATE":"2021-05-23T19:20:22","ORIGINATOR":"18 SPCS","OBJECT_NAME":"STARLINK-1024","OBJECT_ID":"2019-074S","CENTER_NAME":"EARTH","REF_FRAME":"TEME","TIME_SYSTEM":"UTC","MEAN_ELEMENT_THEORY":"SGP4","EPOCH":"2021-05-23T12:29:14.307936","MEAN_MOTION":"15.06916194","ECCENTRICITY":"0.00009390","INCLINATION":"53.0003","RA_OF_ASC_NODE":"146.8228","ARG_OF_PERICENTER":"152.2621","MEAN_ANOMALY":"207.8418","EPHEMERIS_TYPE":"0","CLASSIFICATION_TYPE":"U","NORAD_CAT_ID":"44729","ELEMENT_SET_NO":"999","REV_AT_EPOCH":"8453","BSTAR":"0.00007113600000","MEAN_MOTION_DOT":"0.00000792","MEAN_MOTION_DDOT":"0.0000000000000","SEMIMAJOR_AXIS":"6923.767","PERIOD":"95.559","APOAPSIS":"546.282","PERIAPSIS":"544.982","OBJECT_TYPE":"PAYLOAD","RCS_SIZE":"LARGE","COUNTRY_CODE":"US","LAUNCH_DATE":"2019-11-11","SITE":"AFETR","DECAY_DATE":null,"FILE":"3041263","GP_ID":"177736754","TLE_LINE0":"0 STARLINK-1024","TLE_LINE1":"1 44729U 19074S   21143.52030449  .00000792  00000-0  71136-4 0  9995","TLE_LINE2":"2 44729  53.0003 146.8228 0000939 152.2621 207.8418 15.06916194 84532"},{"CCSDS_OMM_VERS":"2.0","COMMENT":"GENERATED VIA SPACE-TRACK.ORG API","CREATION_DATE":"2021-05-24T04:04:06","ORIGINATOR":"18 SPCS","OBJECT_NAME":"STARLINK-1024","OBJECT_ID":"2019-074S","CENTER_NAME":"EARTH","REF_FRAME":"TEME","TIME_SYSTEM":"UTC","MEAN_ELEMENT_THEORY":"SGP4","EPOCH":"2021-05-23T17:15:45.404064","MEAN_MOTION":"15.06916591","ECCENTRICITY":"0.00009180","INCLINATION":"53.0004","RA_OF_ASC_NODE":"145.9278","ARG_OF_PERICENTER":"152.3940","MEAN_ANOMALY":"207.7097","EPHEMERIS_TYPE":"0","CLASSIFICATION_TYPE":"U","NORAD_CAT_ID":"44729","ELEMENT_SET_NO":"999","REV_AT_EPOCH":"8456","BSTAR":"0.00007156200000","MEAN_MOTION_DOT":"0.00000798","MEAN_MOTION_DDOT":"0.0000000000000","SEMIMAJOR_AXIS":"6923.766","PERIOD":"95.559","APOAPSIS":"546.266","PERIAPSIS":"544.995","OBJECT_TYPE":"PAYLOAD","RCS_SIZE":"LARGE","COUNTRY_CODE":"US","LAUNCH_DATE":"2019-11-11","SITE":"AFETR","DECAY_DATE":null,"FILE":"3041473","GP_ID":"177763416","TLE_LINE0":"0 STARLINK-1024","TLE_LINE1":"1 44729U 19074S   21143.71927551  .00000798  00000-0  71562-4 0  9994","TLE_LINE2":"2 44729  53.0004 145.9278 0000918 152.3940 207.7097 15.06916591 84566"},{"CCSDS_OMM_VERS":"2.0","COMMENT":"GENERATED VIA SPACE-TRACK.ORG API","CREATION_DATE":"2021-05-24T18:55:49","ORIGINATOR":"18 SPCS","OBJECT_NAME":"STARLINK-1024","OBJECT_ID":"2019-074S","CENTER_NAME":"EARTH","REF_FRAME":"TEME","TIME_SYSTEM":"UTC","MEAN_ELEMENT_THEORY":"SGP4","EPOCH":"2021-05-24T12:21:49.813632","MEAN_MOTION":"15.06917724","ECCENTRICITY":"0.00008600","INCLINATION":"53.0004","RA_OF_ASC_NODE":"142.3476","ARG_OF_PERICENTER":"152.6254","MEAN_ANOMALY":"207.4780","EPHEMERIS_TYPE":"0","CLASSIFICATION_TYPE":"U","NORAD_CAT_ID":"44729","ELEMENT_SET_NO":"999","REV_AT_EPOCH":"8468","BSTAR":"0.00006500400000","MEAN_MOTION_DOT":"0.00000699","MEAN_MOTION_DDOT":"0.0000000000000","SEMIMAJOR_AXIS":"6923.762","PERIOD":"95.559","APOAPSIS":"546.223","PERIAPSIS":"545.032","OBJECT_TYPE":"PAYLOAD","RCS_SIZE":"LARGE","COUNTRY_CODE":"US","LAUNCH_DATE":"2019-11-11","SITE":"AFETR","DECAY_DATE":null,"FILE":"3041973","GP_ID":"177798912","TLE_LINE0":"0 STARLINK-1024","TLE_LINE1":"1 44729U 19074S   21144.51515988  .00000699  00000-0  65004-4 0  9994","TLE_LINE2":"2 44729  53.0004 142.3476 0000860 152.6254 207.4780 15.06917724 84682"}]